CELESTIS-02             
1 25160U 98007D   21191.13389684 -.00000117  00000-0  55399-5 0  9990
2 25160 107.9742 297.6645 0063198 334.3670  91.3459 14.21568589214432
CELESTIS-03             
1 26034U 99070C   21191.16390855  .00001784  00000-0  10804-3 0  9997
2 26034  98.2874 161.1145 0011063 202.9639 157.1096 15.12076775169282
LACMA ENOCH             
1 43777U 18099V   21190.79986995  .00024025  00000-0  13224-2 0  9997
2 43777  97.7351 270.3633 0009696 322.0421  38.0125 15.14000028142221
CALSPHERE 1             
1 00900U 64063C   21190.81942569  .00000219  00000-0  22430-3 0  9991
2 00900  90.1614  34.8379 0026680 336.9595 142.3301 13.73555252823621
CALSPHERE 2             
1 00902U 64063E   21191.13370378  .00000016  00000-0  10860-4 0  9992
2 00902  90.1728  37.6990 0020179  64.2469  62.8322 13.52697265612956
LCS 1                   
1 01361U 65034C   21190.79941969 -.00000011  00000-0 -25094-2 0  9992
2 01361  32.1389 138.8574 0011501 104.3135 255.8640  9.89299737 31298
TEMPSAT 1               
1 01512U 65065E   21190.86495097  .00000027  00000-0  38089-4 0  9993
2 01512  89.8924 221.8125 0067898 272.6457 262.0530 13.33436231719715
CALSPHERE 4A            
1 01520U 65065H   21190.82329215  .00000042  00000-0  62732-4 0  9995
2 01520  90.0153 130.0429 0070550 147.7946 266.7915 13.35846475721914
OPS 5712 (P/L 160)      
1 02826U 67053A   21191.22332014  .00000465  00000-0  13721-3 0  9992
2 02826  69.9284  11.1443 0004894 110.8855 249.2802 14.49571396803620
OPS 5712 (P/L 153)      
1 02874U 67053H   21190.80994705 -.00000006  00000-0  34457-4 0  9991
2 02874  69.9744  19.0393 0007161 357.1887   2.9178 13.96371849755028
SURCAL 150B             
1 02909U 67053J   21190.85140077  .00000706  00000-0  15284-3 0  9992
2 02909  69.9480  17.6518 0003279 167.5993 192.5228 14.62424697813508
RIGIDSPHERE 2 (LCS 4)   
1 05398U 71067E   21190.81711570  .00000160  00000-0  49224-4 0  9991
2 05398  87.6229 117.5893 0065904  75.8269 285.0239 14.34009002615156
COSMOS 2493 (SKRL-756 1)
1 39490U 13078A   21191.26933210  .00000275  00000-0  26631-4 0  9990
2 39490  82.4175 201.9184 0018217 147.5922 212.6419 14.88815222409108
COSMOS 2494 (SKRL-756 2)
1 39491U 13078B   21191.23297125  .00000284  00000-0  26524-4 0  9997
2 39491  82.4176 196.4613 0023293 128.2649 232.0670 14.90212109409379
RADUGA 1 [-]            
1 08513U 75123A   21190.87278509 -.00000161  00000-0  00000-0 0  9993
2 08513   7.3822 293.2516 0007533 200.1189 193.0862  1.00284989176732
RADUGA 2 [-]            
1 09416U 76092A   21190.75391859 -.00000095  00000-0  00000-0 0  9999
2 09416   8.0375 295.1480 0025268 347.0711 355.4162  1.00246175111252
RADUGA 3 [-]            
1 10159U 77071A   21190.46040219  .00000141  00000-0  00000-0 0  9993
2 10159   8.6449 297.6015 0008833 219.0812 343.3514  1.00328946158958
RADUGA 4 [-]            
1 10987U 78073A   21190.74861233 -.00000328  00000-0  00000-0 0  9991
2 10987   9.2507 300.8563 0008118 356.0077  10.4801  1.00253329101529
RADUGA 5 [-]            
1 11343U 79035A   21190.82293700  .00000027  00000-0  00000-0 0  9999
2 11343   9.6940 303.4416 0006687 150.0530 195.1834  1.00269977111267
RADUGA 6 [-]            
1 11708U 80016A   21190.75575056 -.00000176  00000-0  00000-0 0  9990
2 11708  10.0319 306.3006 0002618 164.5569 176.6988  1.00205779104072
RADUGA 7 [-]            
1 12003U 80081A   21190.65731389  .00000122  00000-0  00000-0 0  9993
2 12003  10.2041 308.1426 0008928 250.4516 183.2970  1.00359980105225
RADUGA 8 [-]            
1 12351U 81027A   21190.79666421 -.00000262  00000-0  00000-0 0  9995
2 12351  10.5290 308.7750 0083037 216.4660 342.8764  1.00395770104446
RADUGA 9 [-]            
1 12618U 81069A   21190.87704868 -.00000185  00000-0  00000+0 0  9997
2 12618  10.7228 311.4932 0004954 125.2774 255.7100  1.00193748110255
RADUGA 10 [-]           
1 12897U 81102A   21190.39319965 -.00000017  00000-0  00000+0 0  9995
2 12897  10.8025 312.4114 0005942 156.8256  29.3990  1.00251602 99315
RADUGA 11 [-]           
1 13669U 82113A   21190.72957978 -.00000129  00000-0  00000-0 0  9990
2 13669  12.7215 325.3476 0036617 243.6379 298.4609  0.97709475103912
RADUGA 12 [-]           
1 13974U 83028A   21190.86229491 -.00000183  00000-0  00000+0 0  9991
2 13974  11.8449 321.7282 0004179  96.8511 264.8519  1.00268762151294
RADUGA 13 [-]           
1 14307U 83088A   21190.87674773 -.00000004  00000-0  00000-0 0  9999
2 14307  12.9451 326.9274 0017144  36.9696 321.1210  0.98172530101230
RADUGA 14 [-]           
1 14725U 84016A   21190.96626564  .00000010  00000-0  00000+0 0  9995
2 14725  12.0060 325.2932 0006130 115.1775 259.6372  1.00263042100006
RADUGA 15 [-]           
1 15057U 84063A   21190.66168330  .00000103  00000-0  00000-0 0  9999
2 15057  12.1151 326.2799 0005986 130.0515  87.1132  1.00283886123017
RADUGA 16 [-]           
1 15946U 85070A   21190.52423670 -.00000229  00000-0  00000-0 0  9991
2 15946  12.5132 330.7941 0002845 109.5243 317.1407  1.00175096104143
RADUGA 17 [-]           
1 16250U 85107A   21190.83052654 -.00000303  00000-0  00000-0 0  9998
2 16250  12.6189 332.1186 0013901 162.7059 195.0921  1.00135035133609
RADUGA 18 [-]           
1 16497U 86007A   21190.99793228  .00000016  00000-0  00000+0 0  9996
2 16497  13.3967 334.7400 0075477 153.6719  21.0286  0.98812135128097
RADUGA 19 [-]           
1 17046U 86082A   21190.16160515 -.00000208  00000-0  00000-0 0  9991
2 17046  13.7663 338.5616 0013762 128.4928 224.7930  0.98462217125140
RADUGA 20 [-]           
1 17611U 87028A   21190.83087547 -.00000093  00000-0  00000-0 0  9999
2 17611  15.7364 342.1122 0031095 123.0676 226.8009  0.95961525121005
RADUGA 21 [-]           
1 18631U 87100A   21190.46448348 -.00000265  00000-0  00000-0 0  9993
2 18631  13.8249 339.6449 0004499  94.5520 309.2339  1.00206001123002
RADUGA 22 [-]           
1 19596U 88095A   21191.00142847  .00000028  00000-0  00000+0 0  9999
2 19596  13.7410 343.7697 0006689 108.8373 254.0633  1.00380071103621
RADUGA 23 [-]           
1 19928U 89030A   21190.62757731 -.00000256  00000-0  00000-0 0  9994
2 19928  13.8510 345.5382 0021624 145.9067 116.3794  1.00190923116763
RADUGA-1 1 [-]          
1 20083U 89048A   21191.06998916  .00000001  00000-0  00000+0 0  9994
2 20083  14.5604 348.5031 0023223 100.7765  87.8783  0.98708009113464
RADUGA 24 [-]           
1 20367U 89098A   21190.62202019 -.00000197  00000-0  00000-0 0  9995
2 20367  14.3910 347.8888 0002595  79.7176 167.7335  1.00336723114881
RADUGA 25 [-]           
1 20499U 90016A   21190.80137497 -.00000277  00000-0  00000-0 0  9999
2 20499  14.1492 348.4735 0005591 109.4748  75.4242  1.00318764114824
RADUGA 26 [-]           
1 21016U 90112A   21190.97106362 -.00000216  00000-0  00000+0 0  9999
2 21016  14.3978 351.6955 0008918  72.3401 301.8449  1.00233139112163
RADUGA-1 2 [-]          
1 21038U 90116A   21190.42063331 -.00000317  00000-0  00000-0 0  9998
2 21038  14.4372 351.7826 0009754  80.8551 106.7357  1.00283941 29256
RADUGA 27 [-]           
1 21132U 91014A   21190.86372977 -.00000365  00000-0  00000-0 0  9991
2 21132  14.9523 351.4794 0005847  71.4045 291.0314  1.00208785111232
RADUGA 28 [-]           
1 21821U 91087A   21190.53435282  .00000031  00000-0  00000-0 0  9998
2 21821  14.6548 355.0682 0008575  98.2149  84.2902  1.00354140108238
RADUGA 29 [-]           
1 22557U 93013A   21190.60346286  .00000118  00000-0  00000-0 0  9995
2 22557  14.7713 359.2249 0007871  86.8945 102.9835  1.00182275103595
RADUGA 30 [-]           
1 22836U 93062A   21190.53740608 -.00000088  00000-0  00000+0 0  9993
2 22836  14.7784   1.1567 0003341  17.4366 175.4360  1.00285755101687
RADUGA-1 3 [-]          
1 22981U 94008A   21190.60468417  .00000085  00000-0  00000-0 0  9995
2 22981  14.8340   2.3235 0005583  73.1451 120.2845  1.00291908100396
RADUGA 31 [-]           
1 23010U 94012A   21190.62757731 -.00000245  00000-0  00000-0 0  9995
2 23010  14.7998   2.3031 0007049  70.2456 172.7180  1.00216787100266
RADUGA 32 [-]           
1 23448U 94087A   21191.06356627 -.00000086  00000-0  00000+0 0  9992
2 23448  14.7314   4.9786 0002849 174.1238 204.6748  1.00283116114869
RADUGA-1 4 [-]          
1 25642U 99010A   21190.97498924 -.00000349  00000-0  00000+0 0  9999
2 25642  15.0622  16.7166 0001944 340.7987  29.0601  1.00230329 81894
RADUGA-1 5 [-]          
1 26477U 00049A   21190.86275333 -.00000345  00000-0  00000-0 0  9992
2 26477  12.9237  21.0097 0007145  43.1030 280.1841  1.00268810 76338
RADUGA-1 6 [-]          
1 26936U 01045A   21190.80739422 -.00000174  00000-0  00000-0 0  9997
2 26936  12.9618  27.1596 0014283 147.3599  30.8337  0.97745998 70976
RADUGA-1 7 [-]          
1 28194U 04010A   21190.67418497  .00000130  00000-0  00000-0 0  9992
2 28194  11.5718  34.1422 0001262  37.2191 137.6082  1.00347743 63329
RADUGA-1M 1 [-]         
1 32373U 07058A   21190.84797373 -.00000035  00000-0  00000+0 0  9997
2 32373   6.1444  66.3281 0005378   4.5317 352.9422  0.99399785 50391
RADUGA-1 8 [-]          
1 34264U 09010A   21191.08457758 -.00000255  00000-0  00000+0 0  9999
2 34264   8.5590  56.6931 0015377 353.8012 205.6192  0.99822676 45174
RADUGA-1M 2 [+]         
1 36358U 10002A   21191.18555660 -.00000175  00000-0  00000+0 0  9991
2 36358   0.0810 248.2008 0002776 231.6930 320.2242  1.00272337 41933
RADUGA-1M 3 [+]         
1 39375U 13062A   21190.35743730  .00000164  00000-0  00000-0 0  9995
2 39375   1.3775  93.6904 0000980 317.1602  40.2991  1.00275114 28039
SCD 1                   
1 22490U 93009B   21190.66799634  .00000195  00000-0  30281-5 0  9995
2 22490  24.9683 167.3419 0043099 156.1959   4.6337 14.44613317499945
TECHSAT 1B (GO-32)      
1 25397U 98043D   21190.82478439 -.00000027  00000-0  76953-5 0  9993
2 25397  98.7719 136.3169 0002005  50.6836 309.4519 14.23711215194678
